{
  "type": "FeatureCollection",
  "features": [
    {
      "type": "Feature",
      "properties": {
        "norad_id": 36036,
        "name": "SMOS",
        "group": "resource",
        "lat": 16.694454427116543,
        "lon": 163.89024266859357,
        "alt_km": 759.5767478249345,
        "timestamp": "2025-12-07T07:31:35.959702+00:00",
        "meta_object_name": "SMOS",
        "meta_object_id": "2009-059A",
        "meta_epoch": "2025-12-06T06:25:45.772896",
        "meta_mean_motion": 14.39732741,
        "meta_eccentricity": 0.0001133,
        "meta_inclination": 98.4387,
        "meta_ra_of_asc_node": 165.4122,
        "meta_arg_of_pericenter": 84.8118,
        "meta_mean_anomaly": 275.3199,
        "meta_ephemeris_type": 0,
        "meta_classification_type": "U",
        "meta_norad_cat_id": 36036,
        "meta_element_set_no": 999,
        "meta_rev_at_epoch": 84569,
        "meta_bstar": 0.00026315864,
        "meta_mean_motion_dot": 7.81e-06,
        "meta_mean_motion_ddot": 0,
        "tle_line1": "1 36036U 09059A   25340.26789089  .00000781  00000+0  26316-3 0  9990",
        "tle_line2": "2 36036  98.4387 165.4122 0001133  84.8118 275.3199 14.39732741845697"
      },
      "geometry": {
        "type": "Point",
        "coordinates": [
          163.89024266859357,
          16.694454427116543
        ]
      }
    },
    {
      "type": "Feature",
      "properties": {
        "norad_id": 36110,
        "name": "YAOGAN-7",
        "group": "resource",
        "lat": -0.9667377480895639,
        "lon": 42.953223741686195,
        "alt_km": 647.6499934849044,
        "timestamp": "2025-12-07T07:31:35.959712+00:00",
        "meta_object_name": "YAOGAN-7",
        "meta_object_id": "2009-069A",
        "meta_epoch": "2025-12-06T22:34:59.271456",
        "meta_mean_motion": 14.77718955,
        "meta_eccentricity": 0.00235804,
        "meta_inclination": 98.0304,
        "meta_ra_of_asc_node": 222.7185,
        "meta_arg_of_pericenter": 301.0118,
        "meta_mean_anomaly": 58.8776,
        "meta_ephemeris_type": 0,
        "meta_classification_type": "U",
        "meta_norad_cat_id": 36110,
        "meta_element_set_no": 999,
        "meta_rev_at_epoch": 86123,
        "meta_bstar": 0.00018535195,
        "meta_mean_motion_dot": 1.281e-05,
        "meta_mean_motion_ddot": 0,
        "tle_line1": "1 36110U 09069A   25340.94096379  .00001281  00000+0  18535-3 0  9992",
        "tle_line2": "2 36110  98.0304 222.7185 0023580 301.0118  58.8776 14.77718955861231"
      },
      "geometry": {
        "type": "Point",
        "coordinates": [
          42.953223741686195,
          -0.9667377480895639
        ]
      }
    },
    {
      "type": "Feature",
      "properties": {
        "norad_id": 36605,
        "name": "TANDEM-X",
        "group": "resource",
        "lat": -20.92976861185255,
        "lon": -10.360109033961452,
        "alt_km": 514.3663708372942,
        "timestamp": "2025-12-07T07:31:35.959722+00:00",
        "meta_object_name": "TANDEM-X",
        "meta_object_id": "2010-030A",
        "meta_epoch": "2025-12-06T14:13:48.617184",
        "meta_mean_motion": 15.19146828,
        "meta_eccentricity": 0.00021111,
        "meta_inclination": 97.4449,
        "meta_ra_of_asc_node": 346.063,
        "meta_arg_of_pericenter": 96.3345,
        "meta_mean_anomaly": 263.813,
        "meta_ephemeris_type": 0,
        "meta_classification_type": "U",
        "meta_norad_cat_id": 36605,
        "meta_element_set_no": 999,
        "meta_rev_at_epoch": 85740,
        "meta_bstar": 0.00017045926,
        "meta_mean_motion_dot": 3.514e-05,
        "meta_mean_motion_ddot": 0,
        "tle_line1": "1 36605U 10030A   25340.59292381  .00003514  00000+0  17046-3 0  9990",
        "tle_line2": "2 36605  97.4449 346.0630 0002111  96.3345 263.8130 15.19146828857408"
      },
      "geometry": {
        "type": "Point",
        "coordinates": [
          -10.360109033961452,
          -20.92976861185255
        ]
      }
    },
    {
      "type": "Feature",
      "properties": {
        "norad_id": 36795,
        "name": "CARTOSAT-2B",
        "group": "resource",
        "lat": 82.0266295693712,
        "lon": -47.13043960641298,
        "alt_km": 616.7110095143425,
        "timestamp": "2025-12-07T07:31:35.959733+00:00",
        "meta_object_name": "CARTOSAT-2B",
        "meta_object_id": "2010-035A",
        "meta_epoch": "2025-12-06T23:00:34.924320",
        "meta_mean_motion": 14.78775817,
        "meta_eccentricity": 0.00129082,
        "meta_inclination": 97.786,
        "meta_ra_of_asc_node": 30.1768,
        "meta_arg_of_pericenter": 94.6523,
        "meta_mean_anomaly": 265.6163,
        "meta_ephemeris_type": 0,
        "meta_classification_type": "U",
        "meta_norad_cat_id": 36795,
        "meta_element_set_no": 999,
        "meta_rev_at_epoch": 83144,
        "meta_bstar": 0.00019982384,
        "meta_mean_motion_dot": 1.42e-05,
        "meta_mean_motion_ddot": 0,
        "tle_line1": "1 36795U 10035A   25340.95873755  .00001420  00000+0  19982-3 0  9990",
        "tle_line2": "2 36795  97.7860  30.1768 0012908  94.6523 265.6163 14.78775817831447"
      },
      "geometry": {
        "type": "Point",
        "coordinates": [
          -47.13043960641298,
          82.0266295693712
        ]
      }
    },
    {
      "type": "Feature",
      "properties": {
        "norad_id": 36834,
        "name": "YAOGAN-10",
        "group": "resource",
        "lat": 53.992570404998816,
        "lon": -9.860347737760685,
        "alt_km": 608.9121028528507,
        "timestamp": "2025-12-07T07:31:35.959743+00:00",
        "meta_object_name": "YAOGAN-10",
        "meta_object_id": "2010-038A",
        "meta_epoch": "2025-12-06T23:16:29.097408",
        "meta_mean_motion": 14.84574301,
        "meta_eccentricity": 0.00015013,
        "meta_inclination": 97.9142,
        "meta_ra_of_asc_node": 0.8337,
        "meta_arg_of_pericenter": 84.5916,
        "meta_mean_anomaly": 293.7762,
        "meta_ephemeris_type": 0,
        "meta_classification_type": "U",
        "meta_norad_cat_id": 36834,
        "meta_element_set_no": 999,
        "meta_rev_at_epoch": 82868,
        "meta_bstar": 0.00037732506,
        "meta_mean_motion_dot": 3.132e-05,
        "meta_mean_motion_ddot": 0,
        "tle_line1": "1 36834U 10038A   25340.96978122  .00003132  00000+0  37733-3 0  9998",
        "tle_line2": "2 36834  97.9142   0.8337 0001501  84.5916 293.7762 14.84574301828684"
      },
      "geometry": {
        "type": "Point",
        "coordinates": [
          -9.860347737760685,
          53.992570404998816
        ]
      }
    },
    {
      "type": "Feature",
      "properties": {
        "norad_id": 37216,
        "name": "COSMO-SKYMED 4",
        "group": "resource",
        "lat": 25.00699315702813,
        "lon": 159.01383524965385,
        "alt_km": 621.289420637685,
        "timestamp": "2025-12-07T07:31:35.959754+00:00",
        "meta_object_name": "COSMO-SKYMED 4",
        "meta_object_id": "2010-060A",
        "meta_epoch": "2025-12-06T21:41:29.560704",
        "meta_mean_motion": 14.82157529,
        "meta_eccentricity": 0.00013622,
        "meta_inclination": 97.8814,
        "meta_ra_of_asc_node": 162.3151,
        "meta_arg_of_pericenter": 82.8625,
        "meta_mean_anomaly": 277.2743,
        "meta_ephemeris_type": 0,
        "meta_classification_type": "U",
        "meta_norad_cat_id": 37216,
        "meta_element_set_no": 999,
        "meta_rev_at_epoch": 81608,
        "meta_bstar": 0.00014058318,
        "meta_mean_motion_dot": 1.067e-05,
        "meta_mean_motion_ddot": 0,
        "tle_line1": "1 37216U 10060A   25340.90381436  .00001067  00000+0  14058-3 0  9998",
        "tle_line2": "2 37216  97.8814 162.3151 0001362  82.8625 277.2743 14.82157529816089"
      },
      "geometry": {
        "type": "Point",
        "coordinates": [
          159.01383524965385,
          25.00699315702813
        ]
      }
    },
    {
      "type": "Feature",
      "properties": {
        "norad_id": 37387,
        "name": "RESOURCESAT-2",
        "group": "resource",
        "lat": 81.085463748741,
        "lon": -54.6215563472473,
        "alt_km": 808.5713156999655,
        "timestamp": "2025-12-07T07:31:35.959764+00:00",
        "meta_object_name": "RESOURCESAT-2",
        "meta_object_id": "2011-015A",
        "meta_epoch": "2025-12-06T20:57:48.109536",
        "meta_mean_motion": 14.21593716,
        "meta_eccentricity": 0.00066727,
        "meta_inclination": 98.7884,
        "meta_ra_of_asc_node": 44.4515,
        "meta_arg_of_pericenter": 57.767,
        "meta_mean_anomaly": 302.4153,
        "meta_ephemeris_type": 0,
        "meta_classification_type": "U",
        "meta_norad_cat_id": 37387,
        "meta_element_set_no": 999,
        "meta_rev_at_epoch": 75885,
        "meta_bstar": 0.00016405672,
        "meta_mean_motion_dot": 3.15e-06,
        "meta_mean_motion_ddot": 0,
        "tle_line1": "1 37387U 11015A   25340.87347349  .00000315  00000+0  16406-3 0  9993",
        "tle_line2": "2 37387  98.7884  44.4515 0006672  57.7670 302.4153 14.21593716758850"
      },
      "geometry": {
        "type": "Point",
        "coordinates": [
          -54.6215563472473,
          81.085463748741
        ]
      }
    }
  ]
}